[{"OBJECT_NAME":"STARLINK-6197","OBJECT_ID":"2023-078A","EPOCH":"2026-03-09T22:55:29.940960","MEAN_MOTION":15.17018833,"ECCENTRICITY":0.00072438,"INCLINATION":69.9932,"RA_OF_ASC_NODE":349.0269,"ARG_OF_PERICENTER":212.47,"MEAN_ANOMALY":147.6024,"EPHEMERIS_TYPE":0,"CLASSIFICATION_TYPE":"U","NORAD_CAT_ID":56767,"ELEMENT_SET_NO":999,"REV_AT_EPOCH":15259,"BSTAR":0.00062350917,"MEAN_MOTION_DOT":0.00012272,"MEAN_MOTION_DDOT":0},{"OBJECT_NAME":"HYDROGNSS-1","OBJECT_ID":"2025-276DA","EPOCH":"2026-03-09T16:55:29.279136","MEAN_MOTION":15.18118061,"ECCENTRICITY":0.00027273,"INCLINATION":97.4268,"RA_OF_ASC_NODE":143.9079,"ARG_OF_PERICENTER":33.5879,"MEAN_ANOMALY":326.5527,"EPHEMERIS_TYPE":0,"CLASSIFICATION_TYPE":"U","NORAD_CAT_ID":66762,"ELEMENT_SET_NO":999,"REV_AT_EPOCH":1531,"BSTAR":0.00026903168,"MEAN_MOTION_DOT":5.422e-5,"MEAN_MOTION_DDOT":0}]
